{"type": "FeatureCollection", "features": [{"type": "Feature", "properties": {"title": "Premium Commercial Plot near Bihta IIT Road", "locality": "Bihta", "price_lakh": 45.0, "size": "6 Katha", "zone": "Commercial", "verified": true, "demo": true}, "geometry": {"type": "Polygon", "coordinates": [[[84.8618, 25.5463], [84.8632, 25.5465], [84.8631, 25.5453], [84.8619, 25.5451]]]}}, {"type": "Feature", "properties": {"title": "Agricultural Land suitable for Warehouse/Forming", "locality": "Bihta", "price_lakh": 85.0, "size": "1.5 Bigha", "zone": "Agricultural", "verified": true, "demo": true}, "geometry": {"type": "Polygon", "coordinates": [[[84.8835, 25.5695], [84.8865, 25.5698], [84.8867, 25.567], [84.8838, 25.5667]]]}}, {"type": "Feature", "properties": {"title": "Residential Plot in Gola Road, Danapur", "locality": "Danapur", "price_lakh": 95.0, "size": "3 Katha", "zone": "Residential", "verified": true, "demo": true}, "geometry": {"type": "Polygon", "coordinates": [[[85.0475, 25.6209], [85.0488, 25.6212], [85.0489, 25.6201], [85.0476, 25.6198]]]}}, {"type": "Feature", "properties": {"title": "Commercial Plot near G.D. Goenka School", "locality": "Danapur", "price_lakh": 180.0, "size": "5 Katha", "zone": "Commercial", "verified": true, "demo": true}, "geometry": {"type": "Polygon", "coordinates": [[[85.0305, 25.6375], [85.0325, 25.6377], [85.0326, 25.636], [85.0306, 25.6358]]]}}, {"type": "Feature", "properties": {"title": "Residential Plot Near Saguna More Main Highway", "locality": "Bailey Road", "price_lakh": 150.0, "size": "4 Katha", "zone": "Residential", "verified": true, "demo": true}, "geometry": {"type": "Polygon", "coordinates": [[[85.0538, 25.6101], [85.0552, 25.6103], [85.0551, 25.6089], [85.0537, 25.6087]]]}}, {"type": "Feature", "properties": {"title": "Industrial Plot near Phulwari Sharif AIIMS", "locality": "Phulwari Sharif", "price_lakh": 240.0, "size": "10 Katha", "zone": "Industrial", "verified": false, "demo": true}, "geometry": {"type": "Polygon", "coordinates": [[[85.0735, 25.5776], [85.0755, 25.5778], [85.0754, 25.576], [85.0734, 25.5758]]]}}, {"type": "Feature", "properties": {"title": "Premium Commercial Land in Kankarbagh Bypass", "locality": "Kankarbagh", "price_lakh": 320.0, "size": "8 Katha", "zone": "Commercial", "verified": true, "demo": true}, "geometry": {"type": "Polygon", "coordinates": [[[85.1572, 25.5932], [85.1592, 25.5935], [85.1591, 25.5918], [85.1571, 25.5915]]]}}]}